{
"type": "FeatureCollection",
"name": "spill_geometry",
"crs": { "type": "name", "properties": { "name": "urn:ogc:def:crs:OGC:1.3:CRS84" } },
"features": [
{ "type": "Feature", "properties": { "region_id": 1, "scene_id": "S1A_CHENNAI_DEMO", "area_km2": 0.07198507525239127, "centroid_lat": 13.098949999995053, "centroid_lon": 80.30105, "acquisition_timestamp_utc": "2023-12-04T00:30:00Z", "mean_confidence": 0.95, "source_mask_path": "test_mask.tif" }, "geometry": { "type": "Polygon", "coordinates": [ [ [ 80.31, 13.09 ], [ 80.31, 13.088 ], [ 80.313, 13.088 ], [ 80.313, 13.09 ], [ 80.31, 13.09 ] ] ] } },
{ "type": "Feature", "properties": { "region_id": 2, "scene_id": "S1A_CHENNAI_DEMO", "area_km2": 0.50391942973295201, "centroid_lat": 13.088999998022574, "centroid_lon": 80.3115, "acquisition_timestamp_utc": "2023-12-04T00:30:00Z", "mean_confidence": 0.95, "source_mask_path": "test_mask.tif" }, "geometry": { "type": "Polygon", "coordinates": [ [ [ 80.32, 13.08 ], [ 80.32, 13.074 ], [ 80.327, 13.074 ], [ 80.327, 13.08 ], [ 80.32, 13.08 ] ] ] } }
]
}
